Satellite: CASTOR
Catalog number: 35694
Epoch time:      09239.60743633
Element set:      27
Inclination:      051.6428 deg
RA of node:       298.7907 deg
Eccentricity:    0.0004563
Arg of perigee:   113.0465 deg
Mean anomaly:     247.1027 deg
Mean motion:   15.80405492 rev/day
Decay rate:      7.866e-05 rev/day^2
Epoch rev:             441
Checksum:              302

/EX




From r.hoad at att.net  Thu Aug 27 19:05:48 2009
From: r.hoad at att.net (Ray Hoad)
Date: Thu, 27 Aug 2009 21:05:48 -0500
Subject: [keps]  orb09239.2l.amsat
Message-ID: <4A973B7C.7030001@att.net>

SB KEPS @ AMSAT  $ORB09239.N
2Line Orbital Elements 09239.AMSAT

HR AMSAT ORBITAL ELEMENTS FOR AMATEUR SATELLITES IN NASA FORMAT
FROM WA5QGD FORT WORTH,TX August 27, 2009
Send Subscribe/unsubscribe to KEPS at 
http://www.amsat.org/mailman/listinfo/keps
BID: ORB09239.N

DECODE 2-LINE ELSETS WITH THE FOLLOWING KEY:
1 AAAAAU 00  0  0 BBBBB.BBBBBBBB  .CCCCCCCC  00000-0  00000-0 0  DDDZ
2 AAAAA EEE.EEEE FFF.FFFF GGGGGGG HHH.HHHH III.IIII JJ.JJJJJJJJKKKKKZ
KEY: A-CATALOGNUM B-EPOCHTIME C-DECAY D-ELSETNUM E-INCLINATION F-RAAN
G-ECCENTRICITY H-ARGPERIGEE I-MNANOM J-MNMOTION K-ORBITNUM Z-CHECKSUM

TO ALL RADIO AMATEURS BT

AO-07
1 07530U 74089B   09238.63762737 -.00000027  00000-0  10000-3 0 05671
2 07530 101.4244 260.7228 0011998 129.7555 230.4575 12.53576366591546
FO-29
1 24278U 96046B   09238.70138952 -.00000047  00000-0 -12744-4 0 01442
2 24278 098.5407 103.2280 0350781 167.5123 193.4994 13.52944142643280
SO-33
1 25509U 98061B   09239.62892878 -.00000032  00000-0 -21076-4 0  5283
2 25509 031.4363 008.5213 0355000 243.1584 113.2341 14.28263556566051
RS-22
1 27939U 03042A   09239.65378621  .00000035  00000-0  15529-4 0  8757
2 27939 097.9320 111.8822 0012530 268.0525 091.9241 14.63336805316021
VO-52
1 28650U 05017B   09238.69188178  .00000136  00000-0  23727-4 0 03072
2 28650 097.7356 297.9216 0027645 157.0500 203.1933 14.81613852233084
AO-16
1 20439U 90005D   09238.85375405  .00000006  00000-0  17860-4 0 06888
2 20439 098.2861 204.0664 0010565 325.8987 034.1520 14.31831528023269
LO-19
1 20442U 90005G   09238.61969244 -.00000028  00000-0  49889-5 0  6013
2 20442 098.2490 210.8324 0011126 321.3498 038.6871 14.32066211 23393
AO-27
1 22825U 93061C   09239.27164723 -.00000026  00000-0  63407-5 0  3250
2 22825 098.4438 190.4771 0009184 058.7518 301.4576 14.29271462830063
IO-26
1 22826U 93061D   09238.54938937 -.00000034  00000-0  33883-5 0 00550
2 22826 098.4352 190.4953 0009770 056.1619 304.0492 14.29523937830069
GO-32
1 25397U 98043D   09238.58980330  .00000062  00000-0  45276-4 0  9747
2 25397 098.3242 257.1556 0002088 063.7784 296.3620 14.23163141578149
NO-44
1 26931U 01043C   09238.59656895  .00000125  00000-0  81041-4 0 02511
2 26931 067.0500 242.9487 0006610 277.0944 082.9414 14.29565242412648
SO-50
1 27607U 02058C   09238.87040949 -.00000055  00000-0  13394-4 0  9681
2 27607 064.5582 170.4145 0059503 188.3624 171.6506 14.71454342359075
CO-55
1 27844U 03031E   09239.61959286  .00000031  00000-0  34866-4 0  6533
2 27844 098.7142 247.7805 0009327 302.7348 057.2933 14.20652776319405
CO-57
1 27848U 03031J   09239.53668541  .00000031  00000-0  34911-4 0  6035
2 27848 098.7175 246.7610 0009243 306.7848 053.2477 14.20453160319353
AO-51
1 28375U 04025K   09238.52937626 -.00000001  00000-0  12462-4 0 04725
2 28375 098.0536 244.0372 0083296 272.3239 086.8421 14.40650227271084
CO-56
1 28941U 06005C   09239.68927910  .00089558  57109-5  20577-3 0  3866
2 28941 098.1346 068.1196 0063046 219.1428 140.5340 15.93776941198607
GENESAT1
1 29655U 06058C   09239.90845948  .00008419  00000-0  79552-4 0  7921
2 29655 040.0227 093.4594 0004595 309.7536 050.2882 15.66966792153724
CP3
1 31129U 07012N   09239.14389228  .00000062  00000-0  24864-4 0  1545
2 31129 097.9840 288.8036 0103584 065.5151 295.6801 14.52157399125188
CO-65
1 32785U 08021C   09239.24489791  .00000033  00000-0  11034-4 0  4560
2 32785 097.9390 302.6037 0015290 156.5319 203.6592 14.81511318 71965
KKS-1
1 33493U 09002B   09239.79788585  .00000175  00000-0  29754-4 0  6983
2 33493 098.0622 352.3406 0020460 014.0922 346.0855 14.80718348 32060
SOHLA-1
1 33496U 09002E   09239.68113880  .00000018  00000-0  11303-4 0  6633
2 33496 098.0422 347.8913 0007881 059.8643 300.3346 14.69444044 31773
NOAA-10
1 16969U 86073A   09238.60533939  .00000021  00000-0  26691-4 0 07376
2 16969 098.6883 264.8610 0012418 355.9497 004.1574 14.27392975193553
NOAA-11
1 19531U 88089A   09238.78187791  .00000101  00000-0  75066-4 0 07563
2 19531 098.7828 327.6423 0010807 267.9950 091.9975 14.14902506079507
NOAA-12
1 21263U 91032A   09238.92524832  .00000019  00000-0  27184-4 0 02489
2 21263 098.7740 247.0230 0011666 305.0568 054.9517 14.25590482950472
MET-3/5
1 21655U 91056A   09238.95243144  .00000051  00000-0  10000-3 0 07688
2 21655 082.5582 156.5166 0014286 009.5182 350.6209 13.17020690866944
MET-2/21
1 22782U 93055A   09238.75765694  .00000022  00000-0  63480-5 0 05495
2 22782 082.5482 126.0426 0023065 145.4884 214.7786 13.83639294807360
OKEAN-4
1 23317U 94066A   09239.70207422 -.00000016  00000-0 -50056-5 0    12
2 23317 082.5378 267.7500 0023594 125.8606 234.4818 14.82715323802960
NOAA-14
1 23455U 94089A   09238.66005906 -.00000226  00000-0 -95991-4 0 07361
2 23455 098.9048 316.0801 0009165 357.1268 002.9852 14.13767776755889
NOAA-15
1 25338U 98030A   09238.84119131  .00000085  00000-0  55050-4 0 00589
2 25338 098.5904 226.5195 0010143 206.9287 153.1356 14.24781511586839
RESURS
1 25394U 98043A   09239.68045828 -.00000006  00000-0  15077-4 0  2951
2 25394 098.3346 268.3759 0002137 028.0750 332.0544 14.24188662578578
FENGYUN1
1 25730U 99025A   09238.92181574  .00000253  00000-0  17344-3 0 08385
2 25730 098.7589 206.9713 0023056 018.7452 341.4562 14.07963102530271
OKEAN-0
1 25860U 99039A   09238.51915765  .00000001  00000-0  74115-5 0 07703
2 25860 097.7931 216.9296 0001054 039.2444 320.8841 14.73584875543505
NOAA-16
1 26536U 00055A   09238.84326410  .00000147  00000-0  10493-3 0 05361
2 26536 099.1788 244.2283 0011512 084.5033 275.7427 14.12531138460276
NOAA-17
1 27453U 02032A   09238.68294984  .00000168  00000-0  91475-4 0 05362
2 27453 098.4770 295.3035 0010632 278.3849 081.6109 14.24086837372783
NOAA-18
1 28654U 05018A   09238.66095908  .00000020  00000-0  35792-4 0 00223
2 28654 098.9103 181.3662 0014592 160.3555 199.8171 14.11280760219895
NOAA-19
1 33591U 09005A   09238.65613637 -.00000177  00000-0 -74860-4 0 02274
2 33591 098.7493 182.5970 0015039 046.5168 313.7245 14.10979783028377
HUBBLE
1 20580U 90037B   09237.73813890  .00000281  00000-0  87381-5 0 04385
2 20580 028.4706 008.3676 0003213 300.6862 059.3408 15.00824251860313
ISS
1 25544U 98067A   09239.72612858  .00008596  00000-0  59322-4 0  4956
2 25544 051.6401 299.6049 0008936 024.4566 335.7383 15.73800293617229
CO-58
1 28895U 05043F   09239.69263419  .00000059  00000-0  21906-4 0  3807
2 28895 098.0474 128.2698 0018780 122.2545 238.0475 14.59790323204162
FALCON
1 30776U 07006E   09238.76504926  .00000178  00000-0  15889-4 0 06513
2 30776 035.4342 031.1876 0000540 269.9893 090.0761 15.03289930135728
MAST
1 31126U 07012K   09238.66455084  .00000049  00000-0  21392-4 0 06725
2 31126 097.9812 290.2205 0095842 061.2880 299.7925 14.53513417125278
CAPE1
1 31130U 07012P   09238.63512453  .00000082  00000-0  29293-4 0 06816
2 31130 097.9821 288.2195 0103893 067.4997 293.7126 14.52082152124914
COMPASS
1 32787U 08021E   09239.89092465  .00000354  00000-0  51751-4 0  4477
2 32787 097.9368 303.0893 0016243 155.9540 204.2432 14.81646482 72068
AAUSAT2
1 32788U 08021F   09239.85282097 -.00000107  00000-0 -68153-5 0  4435
2 32788 097.9361 303.1219 0015905 156.7194 203.4710 14.81768401 72069
DO-64
1 32789U 08021G   09238.72670333  .00000110  00000-0  20696-4 0 04605
2 32789 097.9404 302.2129 0015889 158.5093 201.6784 14.81773706071892
CO-66
1 32791U 08021J   09239.19917808 -.00000005  00000-0  61047-5 0  4397
2 32791 097.9386 302.4365 0016254 155.7154 204.4823 14.81468695 71929
RS-30
1 32953U 08025A   09238.85966450  .00000010  00000-0  00000-0 0 03908
2 32953 082.4988 212.6614 0020160 028.2675 331.9494 12.43002981057177
TACSAT-3
1 35001U 09028A   09239.91685605  .00001392  00000-0  40785-4 0   827
2 35001 040.4555 171.6336 0025485 333.6354 026.3166 15.39074882 15403
PHARMSAT
1 35002U 09028B   09239.86702819  .00001234  00000-0  35933-4 0   801
2 35002 040.4688 171.3438 0028497 337.7160 022.2415 15.39831737 15397
HAWKSAT1
1 35003U 09028C   09239.89915178  .00002679  00000-0  69452-4 0   851
2 35003 040.4621 170.6285 0028760 340.5292 019.4433 15.40481695 15415
CP6
1 35004U 09028D   09239.96357521  .00002935  00000-0  75455-4 0   790
2 35004 040.4621 170.2400 0028297 341.3468 018.6297 15.40521633 15416
AEROCUB3
1 35005U 09028E   09239.78091622  .00002876  00000-0  74541-4 0   797
2 35005 040.4742 171.6103 0028333 337.6032 022.3547 15.40324506 15388
DRAGNSAT
1 35690U 09038B   09238.64447228  .00015274  00000-0  78463-4 0   275
2 35690 051.6455 303.5995 0003724 164.5711 195.5388 15.81475644  4295
POLLUX
1 35693U 09038E   09239.60138911  .00014243  00000-0  75181-4 0   270
2 35693 051.6418 298.7448 0004047 103.3990 256.7477 15.80951234  4410
CASTOR
1 35694U 09038F   09239.60743633  .00007866  00000-0  44211-4 0   277
2 35694 051.6428 298.7907 0004563 113.0465 247.1027 15.80405492  4415
/EX





From r.hoad at att.net  Thu Sep  3 18:37:59 2009
From: r.hoad at att.net (Ray Hoad)
Date: Thu, 03 Sep 2009 20:37:59 -0500
Subject: [keps]  orb09246.amsat
Message-ID: <4AA06F77.2010409@att.net>

SB KEPS @ AMSAT  $ORB09246.O
Orbital Elements  09246.OSCAR

HR AMSAT ORBITAL ELEMENTS FOR OSCAR SATELLITES
FROM WA5QGD FORT WORTH,TX September 3, 2009
Send Subscribe/unsubscribe to KEPS at 
http://www.amsat.org/mailman/listinfo/keps
BID: ORB09246.O
TO ALL RADIO AMATEURS BT

